GLOBALSTAR M067         
1 32263U 07048A   25087.86786619 -.00000053  00000+0  32797-3 0  9997
2 32263  51.9716 270.9544 0001467 137.4752   1.1912 12.40669145799754
GLOBALSTAR M070         
1 32264U 07048B   25087.15042307 -.00000064  00000+0  22251-3 0  9995
2 32264  51.9776  15.3729 0000480  51.4836  87.8771 12.62314607803438
GLOBALSTAR M066         
1 32265U 07048C   25087.50923471 -.00000083  00000+0  10578-3 0  9995
2 32265  51.9630 259.0839 0002076  77.8658 319.3042 12.35252368805334
GLOBALSTAR M068         
1 32266U 07048D   25087.75828748 -.00000065  00000+0  21663-3 0  9991
2 32266  51.9875 187.4303 0000379 343.7823 181.3600 12.62818173807688
GLOBALSTAR M079         
1 37188U 10054A   25087.27136892 -.00000086  00000+0  10098-3 0  9992
2 37188  52.0062  26.1050 0000787  86.4420  67.9746 12.62272128666239
GLOBALSTAR M074         
1 37189U 10054B   25087.21727928 -.00000095  00000+0  51355-4 0  9995
2 37189  52.0039  25.6063 0000379  87.1796  59.9744 12.62267477666839
GLOBALSTAR M076         
1 37190U 10054C   25087.85201897 -.00000095  00000+0  46522-4 0  9999
2 37190  52.0054  23.8331 0000625 104.2294 291.7310 12.62260082666991
GLOBALSTAR M077         
1 37191U 10054D   25087.47391860 -.00000059  00000+0  24739-3 0  9993
2 37191  52.0097 341.8242 0000685  82.0820  92.5622 12.62272405666958
